NORAD_CAT_ID,OBJECT_NAME,OBJECT_TYPE,EPOCH,MEAN_MOTION,ECCENTRICITY,INCLINATION,RA_OF_ASC_NODE,ARG_OF_PERICENTER,MEAN_ANOMALY,BSTAR,MEAN_MOTION_DOT,MEAN_MOTION_DDOT,TLE_LINE0,TLE_LINE1,TLE_LINE2,SEMIMAJOR_AXIS,PERIOD,APOGEE,PERIGEE,DECAYED
55633.0,STARLINK-5498,PAYLOAD,2024-06-21 20:22:01,14.983303,0.0003088,70.0,342.4093,269.064,91.0165,6.456e-05,6.77e-06,0.0,0 STARLINK-5498,1 55633U 23021F   24173.84862566  .00000677  00000-0  64560-4 0  9997,2 55633  70.0000 342.4093 0003088 269.0640  91.0165 14.98330300 74556,6950.192,96.107,574.203,569.911,0.0
55633.0,STARLINK-5498,PAYLOAD,2024-06-22 12:23:21,14.98331899,0.0003136,69.9998,340.7251,270.233,89.847,1.3901e-05,7.3e-07,0.0,0 STARLINK-5498,1 55633U 23021F   24174.51622596  .00000073  00000-0  13901-4 0  9992,2 55633  69.9998 340.7251 0003136 270.2330  89.8470 14.98331899 74356,6950.187,96.107,574.232,569.872,0.0
55633.0,STARLINK-5498,PAYLOAD,2024-06-22 13:59:29,14.98331599,0.0003149,69.9997,340.5567,269.9748,90.105,1.5194e-05,8.8e-07,0.0,0 STARLINK-5498,1 55633U 23021F   24174.58298611  .00000088  00000-0  15194-4 0  9998,2 55633  69.9997 340.5567 0003149 269.9748  90.1050 14.98331599 74665,6950.188,96.107,574.242,569.864,0.0
55633.0,STARLINK-5498,PAYLOAD,2024-06-22 22:00:10,14.98333962,0.0003131,69.9999,339.7149,269.0339,91.0462,4.2623e-05,4.16e-06,0.0,0 STARLINK-5498,1 55633U 23021F   24174.91678395  .00000416  00000-0  42623-4 0  9998,2 55633  69.9999 339.7149 0003131 269.0339  91.0462 14.98333962 74710,6950.181,96.107,574.222,569.87,0.0
55633.0,STARLINK-5498,PAYLOAD,2024-06-23 12:25:22,14.98327702,0.000311,69.9999,338.1997,268.3507,91.7296,0.00011429,1.271e-05,0.0,0 STARLINK-5498,1 55633U 23021F   24175.51762675  .00001271  00000-0  11429-3 0  9999,2 55633  69.9999 338.1997 0003110 268.3507  91.7296 14.98327702 74504,6950.2,96.107,574.227,569.903,0.0
55633.0,STARLINK-5498,PAYLOAD,2024-06-23 14:01:30,14.98328444,0.0002983,70.0005,338.0331,262.4414,97.6406,0.00010904,1.208e-05,0.0,0 STARLINK-5498,1 55633U 23021F   24175.58438630  .00001208  00000-0  10904-3 0  9994,2 55633  70.0005 338.0331 0002983 262.4414  97.6406 14.98328444 74811,6950.198,96.107,574.136,569.989,0.0
55633.0,STARLINK-5498,PAYLOAD,2024-06-23 20:26:03,14.98331731,0.0003072,70.0001,337.3587,266.6475,93.4333,0.00010412,1.15e-05,0.0,0 STARLINK-5498,1 55633U 23021F   24175.85142461  .00001150  00000-0  10412-3 0  9998,2 55633  70.0001 337.3587 0003072 266.6475  93.4333 14.98331731 74855,6950.188,96.107,574.188,569.917,0.0
55633.0,STARLINK-5498,PAYLOAD,2024-06-24 12:27:23,14.98332359,0.0003085,69.9999,335.675,266.5222,93.5584,0.00010773,1.193e-05,0.0,0 STARLINK-5498,1 55633U 23021F   24176.51902395  .00001193  00000-0  10773-3 0  9999,2 55633  69.9999 335.6750 0003085 266.5222  93.5584 14.98332359 74658,6950.186,96.107,574.195,569.906,0.0
55633.0,STARLINK-5498,PAYLOAD,2024-06-24 14:03:31,14.98332429,0.000309,69.9999,335.5067,266.5697,93.5109,0.00010637,1.176e-05,0.0,0 STARLINK-5498,1 55633U 23021F   24176.58578391  .00001176  00000-0  10637-3 0  9991,2 55633  69.9999 335.5067 0003090 266.5697  93.5109 14.98332429 74965,6950.185,96.107,574.198,569.903,0.0
55633.0,STARLINK-5498,PAYLOAD,2024-06-24 20:28:03,14.98335017,0.0003075,70.0001,334.8337,266.6208,93.46,0.00013039,1.463e-05,0.0,0 STARLINK-5498,1 55633U 23021F   24176.85282157  .00001463  00000-0  13039-3 0  9991,2 55633  70.0001 334.8337 0003075 266.6208  93.4600 14.98335017 75003,6950.177,96.107,574.18,569.905,0.0
55633.0,STARLINK-5498,PAYLOAD,2024-06-25 12:29:24,14.98331179,0.0003041,70.0,333.1505,267.8047,92.2764,7.0284e-05,7.46e-06,0.0,0 STARLINK-5498,1 55633U 23021F   24177.52042508  .00000746  00000-0  70284-4 0  9999,2 55633  70.0000 333.1505 0003041 267.8047  92.2764 14.98331179 74808,6950.189,96.107,574.168,569.941,0.0
55633.0,STARLINK-5498,PAYLOAD,2024-06-25 14:05:32,14.98331288,0.0003041,70.0,332.9822,267.8573,92.2238,6.9083e-05,7.31e-06,0.0,0 STARLINK-5498,1 55633U 23021F   24177.58718494  .00000731  00000-0  69083-4 0  9998,2 55633  70.0000 332.9822 0003041 267.8573  92.2238 14.98331288 75113,6950.189,96.107,574.167,569.94,0.0
55633.0,STARLINK-5498,PAYLOAD,2024-06-25 20:30:04,14.98334701,0.0003025,70.0001,332.3093,267.4489,92.6323,9.9907e-05,1.099e-05,0.0,0 STARLINK-5498,1 55633U 23021F   24177.85422161  .00001099  00000-0  99907-4 0  9997,2 55633  70.0001 332.3093 0003025 267.4489  92.6323 14.98334701 75158,6950.178,96.107,574.146,569.941,0.0
55633.0,STARLINK-5498,PAYLOAD,2024-06-26 10:55:17,14.98335446,0.0002869,70.0007,330.7954,259.104,100.9797,8.2637e-05,8.93e-06,0.0,0 STARLINK-5498,1 55633U 23021F   24178.45506018  .00000893  00000-0  82637-4 0  9991,2 55633  70.0007 330.7954 0002869 259.1040 100.9797 14.98335446 75243,6950.176,96.107,574.035,570.047,0.0
55633.0,STARLINK-5498,PAYLOAD,2024-06-27 12:33:26,14.98331698,0.0003024,70.0004,328.1026,261.4505,98.6311,5.8191e-05,6.01e-06,0.0,0 STARLINK-5498,1 55633U 23021F   24179.52322288  .00000601  00000-0  58191-4 0  9990,2 55633  70.0004 328.1026 0003024 261.4505  98.6311 14.98331698 75102,6950.188,96.107,574.154,569.951,0.0
55633.0,STARLINK-5498,PAYLOAD,2024-06-27 18:57:59,14.98328106,0.000313,70.0002,327.4277,267.5388,92.5413,6.3184e-06,-1.8e-07,0.0,0 STARLINK-5498,1 55633U 23021F   24179.79026638 -.00000018  00000-0  63184-5 0  9991,2 55633  70.0002 327.4277 0003130 267.5388  92.5413 14.98328106 75447,6950.199,96.107,574.239,569.888,0.0
55633.0,STARLINK-5498,PAYLOAD,2024-06-28 12:35:27,14.98334421,0.0003385,69.9999,325.5753,268.5974,91.4797,0.00010913,1.209e-05,0.0,0 STARLINK-5498,1 55633U 23021F   24180.52462002  .00001209  00000-0  10913-3 0  9995,2 55633  69.9999 325.5753 0003385 268.5974  91.4797 14.98334421 75250,6950.179,96.107,574.397,569.692,0.0
55633.0,STARLINK-5498,PAYLOAD,2024-06-28 18:59:58,14.98346343,0.0003125,70.0001,324.9028,267.2666,92.8135,0.00023675,2.734e-05,0.0,0 STARLINK-5498,1 55633U 23021F   24180.79164941  .00002734  00000-0  23675-3 0  9998,2 55633  70.0001 324.9028 0003125 267.2666  92.8135 14.98346343 75292,6950.142,96.106,574.179,569.835,0.0
55633.0,STARLINK-5498,PAYLOAD,2024-06-29 03:00:39,14.98333572,0.0002816,70.0007,324.0608,265.8544,94.2293,0.00024361,2.815e-05,0.0,0 STARLINK-5498,1 55633U 23021F   24181.12545484  .00002815  00000-0  24361-3 0  9994,2 55633  70.0007 324.0608 0002816 265.8544  94.2293 14.98333572 75345,6950.182,96.107,574.004,570.09,0.0
55633.0,STARLINK-5498,PAYLOAD,2024-06-29 12:37:28,14.98322013,0.0003104,70.0014,323.0513,269.6946,90.3857,-2.8155e-05,-4.29e-06,0.0,0 STARLINK-5498,1 55633U 23021F   24181.52602589 -.00000429  00000-0 -28155-4 0  9995,2 55633  70.0014 323.0513 0003104 269.6946  90.3857 14.98322013 75404,6950.218,96.108,574.24,569.925,0.0
55633.0,STARLINK-5498,PAYLOAD,2024-06-29 14:13:36,14.98323987,0.0003049,70.0014,322.883,269.9659,90.1151,1.6553e-05,1.04e-06,0.0,0 STARLINK-5498,1 55633U 23021F   24181.59278554  .00000104  00000-0  16553-4 0  9990,2 55633  70.0014 322.8830 0003049 269.9659  90.1151 14.98323987 75715,6950.211,96.107,574.196,569.957,0.0
55633.0,STARLINK-5498,PAYLOAD,2024-06-29 19:02:00,14.98334786,0.0003017,70.0018,322.3782,270.5684,89.5129,0.00018215,2.081e-05,0.0,0 STARLINK-5498,1 55633U 23021F   24181.79306028  .00002081  00000-0  18215-3 0  9992,2 55633  70.0018 322.3782 0003017 270.5684  89.5129 14.98334786 75447,6950.178,96.107,574.14,569.946,0.0
55633.0,STARLINK-5498,PAYLOAD,2024-06-30 11:03:21,14.983298,0.0002974,70.0017,320.6946,272.0064,88.0755,0.00063219,7.458e-05,0.0,0 STARLINK-5498,1 55633U 23021F   24182.46066403  .00007458  00000-0  63219-3 0  9994,2 55633  70.0017 320.6946 0002974 272.0064  88.0755 14.98329800 75540,6950.194,96.107,574.125,569.992,0.0
55633.0,STARLINK-5498,PAYLOAD,2024-06-30 14:15:37,14.98331079,0.0002977,70.0017,320.3578,271.8883,88.1935,0.00059934,7.066e-05,0.0,0 STARLINK-5498,1 55633U 23021F   24182.59418399  .00007066  00000-0  59934-3 0  9997,2 55633  70.0017 320.3578 0002977 271.8883  88.1935 14.98331079 75864,6950.19,96.107,574.124,569.985,0.0
55633.0,STARLINK-5498,PAYLOAD,2024-06-30 19:04:01,14.98337743,0.0002929,70.0018,319.8518,269.8914,90.191,0.00071867,8.494e-05,0.0,0 STARLINK-5498,1 55633U 23021F   24182.79446218  .00008494  00000-0  71867-3 0  9995,2 55633  70.0018 319.8518 0002929 269.8914  90.1910 14.98337743 75894,6950.169,96.107,574.07,569.998,0.0
55633.0,STARLINK-5498,PAYLOAD,2024-07-01 12:41:30,14.98333746,0.0002921,70.0016,317.9998,270.4148,89.6676,0.00026734,3.099e-05,0.0,0 STARLINK-5498,1 55633U 23021F   24183.52882223  .00003099  00000-0  26734-3 0  9996,2 55633  70.0016 317.9998 0002921 270.4148  89.6676 14.98333746 75703,6950.181,96.107,574.076,570.016,0.0
55633.0,STARLINK-5498,PAYLOAD,2024-07-01 19:06:02,14.98338171,0.0003173,70.0012,317.3274,271.6297,88.4498,0.00033351,3.889e-05,0.0,0 STARLINK-5498,1 55633U 23021F   24183.79585956  .00003889  00000-0  33351-3 0  9998,2 55633  70.0012 317.3274 0003173 271.6297  88.4498 14.98338171 76042,6950.168,96.106,574.238,569.827,0.0
55633.0,STARLINK-5498,PAYLOAD,2024-07-02 12:43:31,14.98332685,0.0002909,70.0015,315.4758,273.7705,86.3121,0.00011864,1.323e-05,0.0,0 STARLINK-5498,1 55633U 23021F   24184.53022196  .00001323  00000-0  11864-3 0  9999,2 55633  70.0015 315.4758 0002909 273.7705  86.3121 14.98332685 75856,6950.185,96.107,574.071,570.028,0.0
55633.0,STARLINK-5498,PAYLOAD,2024-07-02 17:31:55,14.98334561,0.0002927,70.0017,314.9709,274.9945,85.088,0.00013816,1.556e-05,0.0,0 STARLINK-5498,1 55633U 23021F   24184.73050053  .00001556  00000-0  13816-3 0  9991,2 55633  70.0017 314.9709 0002927 274.9945  85.0880 14.98334561 76187,6950.179,96.107,574.078,570.009,0.0
55633.0,STARLINK-5498,PAYLOAD,2024-07-03 12:45:32,14.98327095,0.0002913,70.001,312.9522,274.4393,85.6433,9.8789e-05,1.086e-05,0.0,0 STARLINK-5498,1 55633U 23021F   24185.53162510  .00001086  00000-0  98789-4 0  9993,2 55633  70.0010 312.9522 0002913 274.4393  85.6433 14.98327095 76003,6950.202,96.107,574.091,570.042,0.0
